{
    "links": {
        "self": "http://www.neowsapp.com/rest/v1/neo/3775042?api_key=iIulBulltgU6a56xZRHN4H3l9WmuAYTsLGpBGhQ2"
    },
    "id": "3775042",
    "neo_reference_id": "3775042",
    "name": "(2017 KM27)",
    "designation": "2017 KM27",
    "nasa_jpl_url": "http://ssd.jpl.nasa.gov/sbdb.cgi?sstr=3775042",
    "absolute_magnitude_h": 22.8,
    "estimated_diameter": {
        "kilometers": {
            "estimated_diameter_min": 0.0732073989,
            "estimated_diameter_max": 0.1636967205
        },
        "meters": {
            "estimated_diameter_min": 73.2073989347,
            "estimated_diameter_max": 163.696720474
        },
        "miles": {
            "estimated_diameter_min": 0.0454889547,
            "estimated_diameter_max": 0.1017163949
        },
        "feet": {
            "estimated_diameter_min": 240.181762721,
            "estimated_diameter_max": 537.0627483999
        }
    },
    "is_potentially_hazardous_asteroid": false,
    "close_approach_data": [
        {
            "close_approach_date": "1973-11-09",
            "close_approach_date_full": "1973-Nov-09 22:42",
            "epoch_date_close_approach": 121732920000,
            "relative_velocity": {
                "kilometers_per_second": "24.5578418482",
                "kilometers_per_hour": "88408.2306535139",
                "miles_per_hour": "54933.4364302348"
            },
            "miss_distance": {
                "astronomical": "0.3187695961",
                "lunar": "124.0013728829",
                "kilometers": "47687252.597320307",
                "miles": "29631484.7337699566"
            },
            "orbiting_body": "Earth"
        },
        {
            "close_approach_date": "1977-04-01",
            "close_approach_date_full": "1977-Apr-01 07:15",
            "epoch_date_close_approach": 228726900000,
            "relative_velocity": {
                "kilometers_per_second": "10.7361821721",
                "kilometers_per_hour": "38650.2558196921",
                "miles_per_hour": "24015.7659008526"
            },
            "miss_distance": {
                "astronomical": "0.0748694384",
                "lunar": "29.1242115376",
                "kilometers": "11200308.512736208",
                "miles": "6959548.9912393504"
            },
            "orbiting_body": "Venus"
        },
        {
            "close_approach_date": "2017-05-17",
            "close_approach_date_full": "2017-May-17 02:27",
            "epoch_date_close_approach": 1494988020000,
            "relative_velocity": {
                "kilometers_per_second": "12.1950904243",
                "kilometers_per_hour": "43902.3255274069",
                "miles_per_hour": "27279.1977700713"
            },
            "miss_distance": {
                "astronomical": "0.0953532351",
                "lunar": "37.0924084539",
                "kilometers": "14264640.868569237",
                "miles": "8863636.8234279906"
            },
            "orbiting_body": "Earth"
        }
    ],
    "orbital_data": {
        "orbit_id": "3",
        "orbit_determination_date": "2017-06-02 06:18:03",
        "first_observation_date": "2017-05-24",
        "last_observation_date": "2017-05-31",
        "data_arc_in_days": 7,
        "observations_used": 26,
        "orbit_uncertainty": "8",
        "minimum_orbit_intersection": ".0133741",
        "jupiter_tisserand_invariant": "4.685",
        "epoch_osculation": "2457901.5",
        "eccentricity": ".5128885550145562",
        "semi_major_axis": "1.367251078976671",
        "inclination": "2.881803920394324",
        "ascending_node_longitude": "259.5287683836601",
        "orbital_period": "583.9435140567341",
        "perihelion_distance": ".6660036487382335",
        "perihelion_argument": "252.198426558875",
        "aphelion_distance": "2.068498509215109",
        "perihelion_time": "2457835.854762606597",
        "mean_anomaly": "40.4701566037585",
        "mean_motion": ".6164979853942235",
        "equinox": "J2000",
        "orbit_class": {
            "orbit_class_type": "APO",
            "orbit_class_description": "Near-Earth asteroid orbits which cross the Earth’s orbit similar to that of 1862 Apollo",
            "orbit_class_range": "a (semi-major axis) > 1.0 AU; q (perihelion) < 1.017 AU"
        }
    },
    "is_sentry_object": false
}